GLOBALSTAR M001         
1 25162U 98008A   25316.87628662 -.00000037  00000+0  45997-3 0  9990
2 25162  52.0036 260.4481 0000849 192.7171 183.0196 12.38220897262132
GLOBALSTAR M004         
1 25163U 98008B   25316.75147653 -.00000067  00000+0  20473-3 0  9999
2 25163  52.0017 320.9146 0002881 261.5631 269.7845 12.63407585280464
GLOBALSTAR M002         
1 25164U 98008C   25316.18377255 -.00000058  00000+0  36556-3 0  9999
2 25164  52.0005 229.1267 0002305  55.7487 304.3551 11.61513225201266
GLOBALSTAR M003         
1 25165U 98008D   25315.92266337 -.00000204  00000+0 -12219-2 0  9992
2 25165  51.9896 119.3426 0007333 225.0226 301.7025 12.12049096251134
GLOBALSTAR M014         
1 25306U 98023A   25316.57430117 -.00000064  00000+0  24831-3 0  9994
2 25306  51.9800 148.2505 0000219  75.7876 317.6065 11.65483660208477
GLOBALSTAR M006         
1 25307U 98023B   25316.64872668 -.00000083  00000+0 -14982-3 0  9992
2 25307  51.9922 206.0853 0003904  28.3381 344.6555 11.58178034234034
GLOBALSTAR M015         
1 25308U 98023C   25316.76855522 -.00000039  00000+0  78838-3 0  9996
2 25308  51.9833 311.0687 0012568 340.9052 190.2126 11.48859611211155
GLOBALSTAR M008         
1 25309U 98023D   25316.88406242 -.00000056  00000+0  31751-3 0  9993
2 25309  51.9937 126.9397 0003623 119.9404  46.5436 12.36076041256230
